UWE-3                   
1 39446U 13066AG  26068.86347791  .00006533  00000+0  57142-3 0  9997
2 39446  97.8589  24.3957 0048462 291.5404  68.0655 14.96183146662729
STARLINK-5026           
1 57260U 23094AU  26068.30092813  .00000927  00000+0  83707-4 0  9992
2 57260  43.0071  19.2457 0000975 282.5382  77.5351 15.02539997147859
